GPS BIIR-2  (PRN 13)    
1 24876U 97035A   25354.21137642 -.00000008  00000+0  00000+0 0  9993
2 24876  55.8989 105.5767 0096812  56.9717 303.9301  2.00563750208361
GPS BIIR-4  (PRN 20)    
1 26360U 00025A   25353.20245417 -.00000070  00000+0  00000+0 0  9993
2 26360  55.0490  26.5765 0038889 242.5944 201.8395  2.00567271187665
GPS BIIR-5  (PRN 22)    
1 26407U 00040A   25353.55127426  .00000075  00000+0  00000+0 0  9993
2 26407  54.8893 222.2981 0125640 301.9249 234.0274  2.00568112186349
GPS BIIR-8  (PRN 16)    
1 27663U 03005A   25353.40733007  .00000076  00000+0  00000+0 0  9995
2 27663  54.9218 222.1130 0147690  51.8916 156.0709  2.00570594167704
GPS BIIR-11 (PRN 19)    
1 28190U 04009A   25352.05536002 -.00000051  00000+0  00000+0 0  9996
2 28190  54.9808 283.0048 0108409 167.7197 302.5438  2.00560667159317
GPS BIIR-13 (PRN 02)    
1 28474U 04045A   25353.28917867 -.00000082  00000+0  00000+0 0  9993
2 28474  55.2374 332.1423 0170886 309.5384  31.8922  2.00569921154811
GPS BIIRM-1 (PRN 17)    
1 28874U 05038A   25353.11923096 -.00000037  00000+0  00000+0 0  9993
2 28874  55.0262 280.4441 0131443 293.6931 244.1239  2.00578076148220
GPS BIIRM-2 (PRN 31)    
1 29486U 06042A   25353.47254843  .00000069  00000+0  00000+0 0  9999
2 29486  54.6950 158.4736 0107309  52.1217 283.3875  2.00553919140782
GPS BIIRM-3 (PRN 12)    
1 29601U 06052A   25352.92893286  .00000077  00000+0  00000+0 0  9997
2 29601  54.9692 221.1525 0087942  87.5066 273.5974  2.00574079139795
GPS BIIRM-4 (PRN 15)    
1 32260U 07047A   25353.73356611 -.00000035  00000+0  00000+0 0  9998
2 32260  53.9598  87.4697 0164066  85.3347 276.5368  2.00564307133212
GPS BIIRM-5 (PRN 29)    
1 32384U 07062A   25353.17233809 -.00000038  00000+0  00000+0 0  9996
2 32384  55.1765 281.3880 0032266 162.2119 283.9132  2.00577702131904
GPS BIIRM-6 (PRN 07)    
1 32711U 08012A   25353.65378308  .00000067  00000+0  00000+0 0  9994
2 32711  54.4779 157.0969 0202735 245.0276 112.8468  2.00565937130151
GPS BIIRM-8 (PRN 05)    
1 35752U 09043A   25354.09019108 -.00000061  00000+0  00000+0 0  9991
2 35752  56.0960  34.4932 0051647  81.7821 251.1308  2.00565329119761
GPS BIIF-1  (PRN 25)    
1 36585U 10022A   25354.12428522  .00000080  00000+0  00000+0 0  9993
2 36585  54.2990 215.7760 0126416  65.1663  50.4936  2.00553637114007
GPS BIIF-3  (PRN 24)    
1 38833U 12053A   25353.33258583  .00000057  00000+0  00000+0 0  9991
2 38833  53.5590 150.9686 0176000  64.0969 297.6893  2.00565080 95832
GPS BIIF-4  (PRN 27)    
1 39166U 13023A   25353.19667694 -.00000029  00000+0  00000+0 0  9990
2 39166  54.6464 276.3057 0138305  48.6894 312.5202  2.00564719 92274
GPS BIIF-5  (PRN 30)    
1 39533U 14008A   25351.69471468  .00000074  00000+0  00000+0 0  9996
2 39533  53.6330 156.7220 0079919 226.3473 132.9898  2.00559499 86041
GPS BIIF-6  (PRN 06)    
1 39741U 14026A   25352.97552692 -.00000081  00000+0  00000+0 0  9997
2 39741  56.5812 338.5339 0039341 319.0443  40.6665  2.00561009 84924
GPS BIIF-7  (PRN 09)    
1 40105U 14045A   25352.06552829 -.00000038  00000+0  00000+0 0  9998
2 40105  55.2322  95.6864 0032549 120.0469 240.2601  2.00572958 82445
GPS BIIF-8  (PRN 03)    
1 40294U 14068A   25353.43940340 -.00000061  00000+0  00000+0 0  9999
2 40294  56.8627  37.8869 0060808  69.0507 291.6667  2.00565341 81603
GPS BIIF-9  (PRN 26)    
1 40534U 15013A   25353.07076999  .00000085  00000+0  00000+0 0  9992
2 40534  53.1969 211.6279 0107309  38.6346 322.2232  2.00562262 78218
GPS BIIF-10 (PRN 08)    
1 40730U 15033A   25353.23201412 -.00000026  00000+0  00000+0 0  9996
2 40730  54.1250 274.5058 0111341  26.9648 333.6410  2.00565397 76381
GPS BIIF-11 (PRN 10)    
1 41019U 15062A   25352.29425914 -.00000069  00000+0  00000+0 0  9996
2 41019  56.8362  37.7874 0110964 230.0867 128.9943  2.00567221 74204
GPS BIIF-12 (PRN 32)    
1 41328U 16007A   25353.87265720 -.00000023  00000+0  00000+0 0  9991
2 41328  55.4100  96.5739 0092529 243.7509 115.2864  2.00560395 72243
GPS BIII-1  (PRN 04)    
1 43873U 18109A   25354.01989118 -.00000018  00000+0  00000+0 0  9998
2 43873  55.5707  99.2599 0037563 195.3516 164.4447  2.00553953 51472
GPS BIII-2  (PRN 18)    
1 44506U 19056A   25354.21564463 -.00000077  00000+0  00000+0 0  9993
2 44506  55.7188 338.2561 0057730 198.5398 199.8804  2.00566646 46484
GPS BIII-3  (PRN 23)    
1 45854U 20041A   25353.24073836 -.00000064  00000+0  00000+0 0  9993
2 45854  56.5512  35.9326 0060610 203.6529 154.7875  2.00561972 40429
GPS BIII-4  (PRN 14)    
1 46826U 20078A   25350.04599424  .00000067  00000+0  00000+0 0  9996
2 46826  54.0145 218.2068 0064755 203.3828 339.3936  2.00566891 37831
GPS BIII-5  (PRN 11)    
1 48859U 21054A   25342.17676416 -.00000086  00000+0  00000+0 0  9993
2 48859  55.2581 340.1367 0024678 233.3993 212.8594  2.00553627 32922
GPS BIII-6  (PRN 28)    
1 55268U 23009A   25351.49440589  .00000077  00000+0  00000+0 0  9991
2 55268  55.1064 155.6587 0003797 358.2196  17.9493  2.00555417 21607
GPS BIII-7  (PRN 01)    
1 62339U 24242A   25352.36561222 -.00000085  00000+0  00000+0 0  9993
2 62339  54.9220 341.5124 0012509 345.6877  17.1618  2.00568182  7636
GPS BIII-8  (PRN 21)    
1 64202U 25116A   25352.63672054 -.00000070  00000+0  00000+0 0  9995
2 64202  55.1097  38.4029 0005908 309.1838  78.7026  2.00558053  4252
